
# Worst residual: 12.20 km
# MJD 55255.000000 (2010 Feb 28  0:00)
1964-040A = NORAD 00836 = Vela 2A
1 00836U 64040A   10059.49923398  .00000000  00000-0  00000-0 0  4572
2 00836 066.9258 011.1540 7644311 303.4361 235.4653 00.23892993    06

# Worst residual: 24.81 km
# MJD 55256.000000 (2010 Mar  1  0:00)
1964-040A = NORAD 00836 = Vela 2A
1 00836U 64040A   10060.49923398  .00000000  00000-0  00000-0 0  4574
2 00836 067.0868 010.9957 7631461 303.4930 321.2789 00.23923661    09

# Worst residual: 19.63 km
# MJD 55257.000000 (2010 Mar  2  0:00)
1964-040A = NORAD 00836 = Vela 2A
1 00836U 64040A   10061.49923398  .00000000  00000-0  00000-0 0  4575
2 00836 067.1291 010.9460 7630756 303.5233 047.2556 00.23839806    06

# Worst residual: 12.87 km
# MJD 55258.000000 (2010 Mar  3  0:00)
1964-040A = NORAD 00836 = Vela 2A
1 00836U 64040A   10062.49923398  .00000000  00000-0  00000-0 0  4576
2 00836 067.1597 010.8989 7629429 303.4366 133.5547 00.23908900    02

# Worst residual: 6.06 km
# MJD 55259.000000 (2010 Mar  4  0:00)
1964-040A = NORAD 00836 = Vela 2A
1 00836U 64040A   10063.49923398  .00000000  00000-0  00000-0 0  4577
2 00836 067.1860 010.8504 7636776 303.4063 219.8501 00.23931266    04

# Worst residual: 12.55 km
# MJD 55260.000000 (2010 Mar  5  0:00)
1964-040A = NORAD 00836 = Vela 2A
1 00836U 64040A   10064.49923398  .00000000  00000-0  00000-0 0  4578
2 00836 067.2157 010.7914 7636351 303.4456 305.9751 00.23949734    06

# Worst residual: 15.40 km
# MJD 55261.000000 (2010 Mar  6  0:00)
1964-040A = NORAD 00836 = Vela 2A
1 00836U 64040A   10065.49923398  .00000000  00000-0  00000-0 0  4579
2 00836 067.2445 010.7313 7632273 303.4007 032.1692 00.23933582    07

# Worst residual: 2.78 km
# MJD 55262.000000 (2010 Mar  7  0:00)
1964-040A = NORAD 00836 = Vela 2A
1 00836U 64040A   10066.49923398  .00000000  00000-0  00000-0 0  4570
2 00836 067.2750 010.6638 7633375 303.4305 118.1808 00.23907685    09

# Worst residual: 1.97 km
# MJD 55263.000000 (2010 Mar  8  0:00)
1964-040A = NORAD 00836 = Vela 2A
1 00836U 64040A   10067.49923398  .00000000  00000-0  00000-0 0  4571
2 00836 067.2957 010.6243 7631700 303.4442 204.2132 00.23906271    09

# Worst residual: 4.59 km
# MJD 55264.000000 (2010 Mar  9  0:00)
1964-040A = NORAD 00836 = Vela 2A
1 00836U 64040A   10068.49923398  .00000000  00000-0  00000-0 0  4572
2 00836 067.3104 010.5823 7630570 303.4509 290.2993 00.23906091    05

# Worst residual: 20.52 km
# MJD 55265.000000 (2010 Mar 10  0:00)
1964-040A = NORAD 00836 = Vela 2A
1 00836U 64040A   10069.49923398  .00000000  00000-0  00000-0 0  4573
2 00836 067.3529 010.5229 7633665 303.4928 016.3774 00.23871696    05

# Worst residual: 5.31 km
# MJD 55266.000000 (2010 Mar 11  0:00)
1964-040A = NORAD 00836 = Vela 2A
1 00836U 64040A   10070.49923398  .00000000  00000-0  00000-0 0  4575
2 00836 067.3803 010.4655 7626150 303.5206 102.4896 00.23896724    04

# Worst residual: 4.15 km
# MJD 55267.000000 (2010 Mar 12  0:00)
1964-040A = NORAD 00836 = Vela 2A
1 00836U 64040A   10071.49923398  .00000000  00000-0  00000-0 0  4576
2 00836 067.3802 010.4764 7625937 303.4874 188.6188 00.23906190    05

# Worst residual: 5.06 km
# MJD 55268.000000 (2010 Mar 13  0:00)
1964-040A = NORAD 00836 = Vela 2A
1 00836U 64040A   10072.49923398  .00000000  00000-0  00000-0 0  4577
2 00836 067.3726 010.4623 7626734 303.5073 274.6443 00.23918872    02

# Worst residual: 34.20 km
# MJD 55269.000000 (2010 Mar 14  0:00)
1964-040A = NORAD 00836 = Vela 2A
1 00836U 64040A   10073.49923398  .00000000  00000-0  00000-0 0  4578
2 00836 067.4100 010.4040 7627738 303.4998 000.7718 00.23876004    05

# Worst residual: 19.95 km
# MJD 55270.000000 (2010 Mar 15  0:00)
1964-040A = NORAD 00836 = Vela 2A
1 00836U 64040A   10074.49923398  .00000000  00000-0  00000-0 0  4579
2 00836 067.4401 010.3456 7617788 303.5964 086.7938 00.23869600    09

# Worst residual: 5.06 km
# MJD 55271.000000 (2010 Mar 16  0:00)
1964-040A = NORAD 00836 = Vela 2A
1 00836U 64040A   10075.49923398  .00000000  00000-0  00000-0 0  4570
2 00836 067.4588 010.3238 7618429 303.5269 173.0610 00.23902769    05

# Worst residual: 9.01 km
# MJD 55272.000000 (2010 Mar 17  0:00)
1964-040A = NORAD 00836 = Vela 2A
1 00836U 64040A   10076.49923398  .00000000  00000-0  00000-0 0  4571
2 00836 067.4769 010.2816 7620268 303.5599 259.0623 00.23918007    08

# Worst residual: 24.27 km
# MJD 55273.000000 (2010 Mar 18  0:00)
1964-040A = NORAD 00836 = Vela 2A
1 00836U 64040A   10077.49923398  .00000000  00000-0  00000-0 0  4572
2 00836 067.5157 010.2170 7611305 303.5809 345.0613 00.23962613    06

# Worst residual: 4.69 km
# MJD 55274.000000 (2010 Mar 19  0:00)
1964-040A = NORAD 00836 = Vela 2A
1 00836U 64040A   10078.49923398  .00000000  00000-0  00000-0 0  4573
2 00836 067.5458 010.1588 7613066 303.5890 071.1883 00.23910120    00

# Worst residual: 4.43 km
# MJD 55275.000000 (2010 Mar 20  0:00)
1964-040A = NORAD 00836 = Vela 2A
1 00836U 64040A   10079.49923398  .00000000  00000-0  00000-0 0  4574
2 00836 067.5715 010.1191 7609457 303.5663 157.4387 00.23923664    07

# Worst residual: 5.51 km
# MJD 55276.000000 (2010 Mar 21  0:00)
1964-040A = NORAD 00836 = Vela 2A
1 00836U 64040A   10080.49923398  .00000000  00000-0  00000-0 0  4576
2 00836 067.5708 010.1045 7602902 303.5409 243.6291 00.23913328    01

# Worst residual: 9.95 km
# MJD 55277.000000 (2010 Mar 22  0:00)
1964-040A = NORAD 00836 = Vela 2A
1 00836U 64040A   10081.49923398  .00000000  00000-0  00000-0 0  4577
2 00836 067.5805 010.0627 7596864 303.5351 329.6834 00.23919167    04

# Worst residual: 14.31 km
# MJD 55278.000000 (2010 Mar 23  0:00)
1964-040A = NORAD 00836 = Vela 2A
1 00836U 64040A   10082.49923398  .00000000  00000-0  00000-0 0  4578
2 00836 067.5973 009.9944 7596297 303.5214 055.7910 00.23914882    08

# Worst residual: 4.40 km
# MJD 55279.000000 (2010 Mar 24  0:00)
1964-040A = NORAD 00836 = Vela 2A
1 00836U 64040A   10083.49923398  .00000000  00000-0  00000-0 0  4579
2 00836 067.6460 009.8495 7595690 303.5641 141.8725 00.23911173    01

# Worst residual: 7.77 km
# MJD 55280.000000 (2010 Mar 25  0:00)
1964-040A = NORAD 00836 = Vela 2A
1 00836U 64040A   10084.49923398  .00000000  00000-0  00000-0 0  4570
2 00836 067.7246 009.7151 7597849 303.5894 228.0644 00.23920020    09

# Worst residual: 10.84 km
# MJD 55281.000000 (2010 Mar 26  0:00)
1964-040A = NORAD 00836 = Vela 2A
1 00836U 64040A   10085.49923398  .00000000  00000-0  00000-0 0  4571
2 00836 067.8373 009.5951 7599988 303.6647 314.1772 00.23940518    03

# Worst residual: 31.03 km
# MJD 55282.000000 (2010 Mar 27  0:00)
1964-040A = NORAD 00836 = Vela 2A
1 00836U 64040A   10086.49923398  .00000000  00000-0  00000-0 0  4572
2 00836 067.8780 009.5524 7602433 303.7136 040.2480 00.23858079    08

# Worst residual: 13.30 km
# MJD 55283.000000 (2010 Mar 28  0:00)
1964-040A = NORAD 00836 = Vela 2A
1 00836U 64040A   10087.49923398  .00000000  00000-0  00000-0 0  4573
2 00836 067.9073 009.5041 7592078 303.6698 126.6534 00.23925509    05
